0 ASTRID 2
1 25568U 98072B   19224.27980341 +.00000053 +00000-0 +40882-4 0  9998
2 25568 082.9505 127.7556 0024263 193.6247 287.8033 13.72563916035034
0 ARIANE 42L R/B
1 25586U 98075B   19225.50709688  .00040368  00000-0  97950-3 0  9991
2 25586   7.4625 253.7601 5568263  79.3298 335.8730  4.80210453266098
0 COSMOS 2361
1 25590U 98076A   19225.55122198  .00000045  00000-0  32201-4 0  9994
2 25590  82.9316 254.0378 0030790 214.0313 300.0099 13.72966903 33973
0 COSMOS 2361
1 25590U 98076A   19224.44951481 +.00000052 +00000-0 +40075-4 0  9992
2 25590 082.9317 254.8522 0030736 217.1644 254.5527 13.72966901033522
0 COSMOS 2361
1 25590U 98076A   19224.44951481  .00000052  00000-0  40075-4 0  9992
2 25590  82.9317 254.8522 0030736 217.1644 254.5527 13.72966901 33825
0 SL-8 R/B
1 25592U 98076B   19224.46097605 -.00000069 +00000-0 -89156-4 0  9998
2 25592 082.9310 244.5716 0026036 169.1630 299.0479 13.74135498034383
0 SL-8 R/B
1 25592U 98076B   19225.18089656 -.00000071  00000-0 -91903-4 0  9991
2 25592  82.9310 244.0383 0026081 167.1754 260.3964 13.74135365 34757
0 NIMBUS 2 DEB
1 25612U 66040E   19225.02659756  .00000727  00000-0  99253-3 0  9998
2 25612 100.4644 248.9581 0037944 242.4950 146.2962 13.62753847 94174
0 NIMBUS 2 DEB
1 25612U 66040E   19223.99909275 +.00000718 +00000-0 +98170-3 0  9993
2 25612 100.4644 247.8557 0037727 245.2610 145.2194 13.62752252093497
0 USA 141
1 25615U 98055C   19224.96566999 +.00000235 +00000-0 +61367-4 0  9990
2 25615 084.9822 048.7544 0010179 082.1937 278.0417 14.45068631012789
0 USA 141
1 25615U 98055C   19225.17340268  .00000250  00000-0  65737-4 0  9995
2 25615  84.9822  48.6314 0010179  81.5045 278.7312 14.45068812 12812
0 ROCSAT 1
1 25616U 99002A   19224.35610465 +.00000786 +00000-0 +28236-4 0  9994
2 25616 034.9387 200.6266 0022227 083.0728 277.2515 15.29149756129506
0 ROCSAT 1
1 25616U 99002A   19224.35610465  .00000786  00000-0  28236-4 0  9994
2 25616  34.9387 200.6266 0022227  83.0728 277.2515 15.29149756129810
0 GLOBALSTAR M023
1 25621U 99004A   19225.49132903 -.00000004  00000-0  55462-3 0  9998
2 25621  52.0113  72.6733 0010924  88.2632 298.2207 12.62378320946208
0 GLOBALSTAR M036
1 25623U 99004C   19225.42451931 -.00000115  00000-0 -46641-3 0  9991
2 25623  51.9972 106.7694 0011595 286.6800 123.2983 11.86563777925541
0 GLOBALSTAR M038
1 25624U 99004D   19225.39053906 -.00000106  00000-0 -94005-4 0  9996
2 25624  51.9980  98.9122 0001237 288.2526 120.4649 12.32439590939106
0 GALAXY 26 (TELSTAR 6)
1 25626U 99005A   19225.13862421  .00000040  00000-0  00000+0 0  9993
2 25626   6.3540  67.4223 0003236  61.3883 124.7506  0.98995444 74826
0 GALAXY 26 (TELSTAR 6)
1 25626U 99005A   19224.62618978 +.00000036 +00000-0 +00000-0 0  9998
2 25626 006.3529 067.4264 0003247 060.9294 302.5802 00.98995394019245
0 JCSAT 6
1 25630U 99006A   19225.83473640 -.00000222  00000-0  00000+0 0  9990
2 25630   3.9331  75.8951 0004048  44.3690 292.2177  1.00272099 74937
0 ARGOS
1 25634U 99008A   19224.14967891 -.00000208  00000-0 -78898-4 0  9995
2 25634  98.5048 270.9353 0010916  94.5228 265.7193 14.19355254 59952
0 ARGOS
1 25634U 99008A   19224.14967891 -.00000208 +00000-0 -78898-4 0  9995
2 25634 098.5048 270.9353 0010916 094.5228 265.7193 14.19355254059468
0 ORSTED
1 25635U 99008B   19225.44077848  .00000059  00000-0  22044-4 0  9998
2 25635  96.4847 316.8487 0137064 256.1995 102.3919 14.48159795 80169
0 DELTA 2 R/B
1 25637U 99008D   19225.43147795  .00000020  00000-0  13086-4 0  9992
2 25637  96.4867 310.2011 0140929 296.4105 126.6516 14.46630905 79422
0 ARABSAT 3A
1 25638U 99009A   19225.20456733  .00000100  00000-0  00000+0 0  9990
2 25638   7.9632  48.5387 0004079 305.0920 254.6816  1.00140690 74955
0 ARABSAT 3A
1 25638U 99009A   19224.63034358 +.00000099 +00000-0 +00000-0 0  9999
2 25638 007.9624 048.5423 0004088 305.2674 047.4875 01.00140432074918
0 SKYNET 4E
1 25639U 99009B   19225.66434793 -.00000047  00000-0  00000+0 0  9994
2 25639  10.6991  22.9837 0002759 123.5948  53.1693  1.00272065 74954
0 GLOBALSTAR M022
1 25649U 99012A   19225.78324183 -.00000067  00000-0  24001-3 0  9996
2 25649  52.0064 332.7648 0001900 273.8939 254.3132 12.02435527919683
0 GLOBALSTAR M041
1 25650U 99012B   19225.36041796 -.00000107  00000-0 -27816-3 0  9991
2 25650  52.0017 150.2456 0003032  88.8878 271.2306 11.96604613922958
0 GLOBALSTAR M037
1 25652U 99012D   19224.45140014 -.00000066 +00000-0 +20963-3 0  9994
2 25652 051.9983 207.2760 0001743 139.2235 358.8014 12.62325508941604
0 GLOBALSTAR M037
1 25652U 99012D   19224.45140014 -.00000066  00000-0  20963-3 0  9994
2 25652  51.9983 207.2760 0001743 139.2235 358.8014 12.62325508941592
0 ASIASAT 3S
1 25657U 99013A   19224.86785561 -.00000245 +00000-0 +00000-0 0  9993
2 25657 004.1282 074.2952 0002664 052.4370 294.2097 01.00272051074745
0 SL-12 R/B(2)
1 25660U 99013D   19223.74563389 -.00000134 +00000-0 +00000-0 0  9992
2 25660 014.1513 314.8040 4586135 053.5279 077.8618 01.74917150130331
0 SL-12 R/B(2)
1 25660U 99013D   19224.88729905 -.00000139  00000-0  00000+0 0  9990
2 25660  14.1497 314.7134 4586110  53.7011  76.7608  1.74917241130343
0 INSAT 2E (APR-1)
1 25666U 99016A   19224.83495604 -.00000252 +00000-0 +00000-0 0  9997
2 25666 006.6843 056.6179 0008724 246.7005 117.9361 00.99663000026529
0 INSAT 2E (APR-1)
1 25666U 99016A   19225.45783566 -.00000261  00000-0  00000+0 0  9992
2 25666   6.6854  56.6144 0008718 246.7517 341.3734  0.99662973 74522
0 INSAT 2E (APR-1)
1 25666U 99016A   19225.45783566 -.00000261  00000-0  00000+0 0  9992
2 25666   6.6854  56.6144 0008718 246.7517 341.3734  0.99662973 74522
0 IUS R/B(2)
1 25672U 99017D   19224.47865301 +.00000215 +00000-0 +43851-3 0  9992
2 25672 028.6899 024.6751 7148028 174.2444 204.1995 02.39984123000626
0 IUS R/B(2)
1 25672U 99017D   19224.47865301  .00000215  00000-0  43851-3 0  9992
2 25672  28.6899  24.6751 7148028 174.2444 204.1995  2.39984123   626
0 GLOBALSTAR M045
1 25676U 99019A   19225.59779073 -.00000112  00000-0 -16151-3 0  9993
2 25676  51.9960 268.6395 0000762 166.9894 355.0991 12.26961937931602
0 GLOBALSTAR M019
1 25677U 99019B   19225.56748505  .00000047  00000-0  14269-2 0  9999
2 25677  51.9855 249.1079 0000826 318.6577 209.9265 12.13812256926097
0 GLOBALSTAR M044
1 25678U 99019C   19225.66593880 -.00000100  00000-0 -22234-3 0  9999
2 25678  51.9971 293.1869 0006398 239.3525 282.8626 11.90186054917135
0 GLOBALSTAR M042
1 25679U 99019D   19225.71183628 -.00000093  00000-0 -92540-5 0  9991
2 25679  52.0030 316.1262 0002789 215.6650 302.0090 12.22011754924366
0 LANDSAT 7
1 25682U 99020A   19225.89199064 -.00000009  00000-0  79083-5 0  9990
2 25682  98.1251 291.9277 0001517  83.5540 276.5824 14.57155988 81306
0 LANDSAT 7
1 25682U 99020A   19225.20531544 -.00000009  00000-0  78862-5 0  9992
2 25682  98.1250 291.2577 0001494  83.3040 276.8333 14.57155951 81205
0 LANDSAT 7
1 25682U 99020A   19224.86197741 -.00000006  00000-0  84884-5 0  9998
2 25682  98.1249 290.9226 0001500  83.7914 276.3445 14.57155954 81158
0 LANDSAT 7
1 25682U 99020A   19224.86197741 -.00000006 +00000-0 +84884-5 0  9998
2 25682 098.1249 290.9226 0001500 083.7914 276.3445 14.57155954081158
0 LANDSAT 7
1 25682U 99020A   19225.47998555 -.00000005  00000-0  88359-5 0  9998
2 25682  98.1249 291.5257 0001506  82.4142 277.7229 14.57156011 81244
0 SS-18 R/B
1 25695U 99021C   19224.94515713 -.00000115 +00000-0 -13162-5 0  9998
2 25695 064.5552 169.9824 0553712 182.1247 177.7451 13.71985065016872
0 SL-8 R/B
1 25723U 99022C   19225.48772573  .00005382  00000-0  55837-4 0  9993
2 25723  48.4119 251.2647 0007843 270.5096  89.4955 15.66324606129434
0 TITAN 4B CENTAUR R/B
1 25725U 99023B   19224.78394540 -.00000002 +00000-0 -83905-4 0  9995
2 25725 028.3095 218.3220 2385737 152.9853 221.7882 09.67256390014839
0 TITAN 4B CENTAUR R/B
1 25725U 99023B   19224.78394540 -.00000002  00000-0 -83905-4 0  9995
2 25725  28.3095 218.3220 2385737 152.9853 221.7882  9.67256390 14839
0 ORION 3
1 25727U 99024A   19224.74818752 +.00000078 +00000-0 -73466-3 0  9992
2 25727 019.8242 191.2040 0041110 277.9758 081.5906 10.39150093808893
0 FENGYUN 1C
1 25730U 99025A   19224.51089376 +.00000367 +00000-0 +21114-3 0  9997
2 25730 099.0679 224.4952 0014407 157.8961 354.1768 14.15527476043519
0 FENGYUN 1C
1 25730U 99025A   19224.51089376  .00000367  00000-0  21114-3 0  9997
2 25730  99.0679 224.4952 0014407 157.8961 354.1768 14.15527476 43586
0 SJ-5
1 25731U 99025B   19225.50779849  .00000003  00000-0  26322-4 0  9993
2 25731  99.0499 248.0643 0016273 226.9718 133.0091 14.12420513 44267
0 SJ-5
1 25731U 99025B   19224.94108036 -.00000005 +00000-0 +21908-4 0  9992
2 25731 099.0499 247.4920 0016252 228.6523 131.3250 14.12420461044099
0 CZ-4B DEB
1 25733U 99025D   19224.94485896 +.00000077 +00000-0 +61630-4 0  9990
2 25733 098.9777 246.0849 0015902 120.1023 240.1730 14.16285958045889
0 TERRIERS
1 25735U 99026A   19224.85153271 +.00000895 +00000-0 +18754-4 0  9999
2 25735 097.2473 037.8520 0005081 035.2819 324.8767 15.48160867127848
0 TERRIERS
1 25735U 99026A   19224.85153271  .00000895  00000-0  18754-4 0  9999
2 25735  97.2473  37.8520 0005081  35.2819 324.8767 15.48160867127905
0 MUBLCOM
1 25736U 99026B   19225.48243552  .00000123  00000-0  42107-4 0  9995
2 25736  97.6758 247.9614 0006862 101.6547 258.5419 14.49301906 67213
0 NIMIQ 1
1 25740U 99027A   19225.48105031 -.00000217  00000-0  00000+0 0  9996
2 25740   0.3720  96.7615 0005463  47.3631 264.1391  1.00274361 74144
0 PEGASUS DEB
1 25750U 94029AEG 19224.96826636  .00002953  00000-0  14049-3 0  9997
2 25750  82.3670  64.5883 0064519 330.3547  29.4034 15.16910240 83755
